{
    "links": {
        "self": "http://www.neowsapp.com/rest/v1/neo/3552684?api_key=iIulBulltgU6a56xZRHN4H3l9WmuAYTsLGpBGhQ2"
    },
    "id": "3552684",
    "neo_reference_id": "3552684",
    "name": "(2010 XH)",
    "designation": "2010 XH",
    "nasa_jpl_url": "http://ssd.jpl.nasa.gov/sbdb.cgi?sstr=3552684",
    "absolute_magnitude_h": 23.7,
    "estimated_diameter": {
        "kilometers": {
            "estimated_diameter_min": 0.0483676488,
            "estimated_diameter_max": 0.1081533507
        },
        "meters": {
            "estimated_diameter_min": 48.3676488219,
            "estimated_diameter_max": 108.1533506775
        },
        "miles": {
            "estimated_diameter_min": 0.0300542543,
            "estimated_diameter_max": 0.0672033557
        },
        "feet": {
            "estimated_diameter_min": 158.6865169607,
            "estimated_diameter_max": 354.8338390368
        }
    },
    "is_potentially_hazardous_asteroid": false,
    "close_approach_data": [
        {
            "close_approach_date": "2010-07-01",
            "close_approach_date_full": "2010-Jul-01 23:41",
            "epoch_date_close_approach": 1278027660000,
            "relative_velocity": {
                "kilometers_per_second": "5.6647971432",
                "kilometers_per_hour": "20393.2697153586",
                "miles_per_hour": "12671.5847295238"
            },
            "miss_distance": {
                "astronomical": "0.3314573591",
                "lunar": "128.9369126899",
                "kilometers": "49585314.917185117",
                "miles": "30810885.9697719346"
            },
            "orbiting_body": "Earth"
        },
        {
            "close_approach_date": "2010-11-19",
            "close_approach_date_full": "2010-Nov-19 19:25",
            "epoch_date_close_approach": 1290194700000,
            "relative_velocity": {
                "kilometers_per_second": "8.9542955416",
                "kilometers_per_hour": "32235.4639498102",
                "miles_per_hour": "20029.8636970362"
            },
            "miss_distance": {
                "astronomical": "0.0855720813",
                "lunar": "33.2875396257",
                "kilometers": "12801401.093946831",
                "miles": "7954421.7883390278"
            },
            "orbiting_body": "Earth"
        },
        {
            "close_approach_date": "2138-07-23",
            "close_approach_date_full": "2138-Jul-23 19:01",
            "epoch_date_close_approach": 5319198060000,
            "relative_velocity": {
                "kilometers_per_second": "9.9267612148",
                "kilometers_per_hour": "35736.3403732722",
                "miles_per_hour": "22205.1721613812"
            },
            "miss_distance": {
                "astronomical": "0.1461030314",
                "lunar": "56.8340792146",
                "kilometers": "21856702.297983118",
                "miles": "13581125.0428303084"
            },
            "orbiting_body": "Earth"
        },
        {
            "close_approach_date": "2138-12-20",
            "close_approach_date_full": "2138-Dec-20 04:18",
            "epoch_date_close_approach": 5332105080000,
            "relative_velocity": {
                "kilometers_per_second": "6.082927006",
                "kilometers_per_hour": "21898.5372217631",
                "miles_per_hour": "13606.8994198227"
            },
            "miss_distance": {
                "astronomical": "0.3716235388",
                "lunar": "144.5615565932",
                "kilometers": "55594089.846342356",
                "miles": "34544565.5777262728"
            },
            "orbiting_body": "Earth"
        }
    ],
    "orbital_data": {
        "orbit_id": "9",
        "orbit_determination_date": "2017-04-06 08:55:28",
        "first_observation_date": "2010-12-01",
        "last_observation_date": "2010-12-09",
        "data_arc_in_days": 8,
        "observations_used": 24,
        "orbit_uncertainty": "8",
        "minimum_orbit_intersection": ".0838642",
        "jupiter_tisserand_invariant": "4.795",
        "epoch_osculation": "2455533.5",
        "eccentricity": ".3073646280793187",
        "semi_major_axis": "1.35618768953036",
        "inclination": "9.491547671472002",
        "ascending_node_longitude": "260.9468438067343",
        "orbital_period": "576.870225141852",
        "perihelion_distance": ".9393435647321104",
        "perihelion_argument": "102.6802214923136",
        "aphelion_distance": "1.77303181432861",
        "perihelion_time": "2455475.127088751033",
        "mean_anomaly": "36.42803378257342",
        "mean_motion": ".6240571697238773",
        "equinox": "J2000",
        "orbit_class": {
            "orbit_class_type": "APO",
            "orbit_class_description": "Near-Earth asteroid orbits which cross the Earth’s orbit similar to that of 1862 Apollo",
            "orbit_class_range": "a (semi-major axis) > 1.0 AU; q (perihelion) < 1.017 AU"
        }
    },
    "is_sentry_object": false
}